{"type": "FeatureCollection", "features": [ {"type": "Feature", "properties": {"norad_id": 38486, "name": "COSMOS 2251 DEB", "group": "cosmos-2251-debris", "lat": 35.40299141705235, "lon": -133.01707552229487, "alt_km": 631.8753214102371, "timestamp": "2025-12-07T11:27:50.405334+00:00", "meta": {"OBJECT_NAME": "COSMOS 2251 DEB", "OBJECT_ID": "1993-036BTW", "EPOCH": "2025-12-06T22:20:18.224736", "MEAN_MOTION": 14.72994034, "ECCENTRICITY": 0.00300466, "INCLINATION": 73.9399, "RA_OF_ASC_NODE": 216.2395, "ARG_OF_PERICENTER": 1.0805, "MEAN_ANOMALY": 16.9545, "EPHEMERIS_TYPE": 0, "CLASSIFICATION_TYPE": "U", "NORAD_CAT_ID": 38486, "ELEMENT_SET_NO": 999, "REV_AT_EPOCH": 75349, "BSTAR": 0.0040836138, "MEAN_MOTION_DOT": 0.00026487, "MEAN_MOTION_DDOT": 0}, "tle": {"line1": "1 38486U 93036BTW 25340.93076649  .00026487  00000+0  40836-2 0  9997", "line2": "2 38486  73.9399 216.2395 0030046   1.0805  16.9545 14.72994034753497"}}, "geometry": {"type": "Point", "coordinates": [-133.01707552229487, 35.40299141705235]}}, {"type": "Feature", "properties": {"norad_id": 38487, "name": "COSMOS 2251 DEB", "group": "cosmos-2251-debris", "lat": 59.26860033176409, "lon": 73.75849446648168, "alt_km": 523.5340270590741, "timestamp": "2025-12-07T11:27:50.405344+00:00", "meta": {"OBJECT_NAME": "COSMOS 2251 DEB", "OBJECT_ID": "1993-036BTX", "EPOCH": "2025-12-06T20:56:11.470272", "MEAN_MOTION": 15.1665427, "ECCENTRICITY": 0.00224486, "INCLINATION": 73.9743, "RA_OF_ASC_NODE": 46.1118, "ARG_OF_PERICENTER": 218.6783, "MEAN_ANOMALY": 141.2806, "EPHEMERIS_TYPE": 0, "CLASSIFICATION_TYPE": "U", "NORAD_CAT_ID": 38487, "ELEMENT_SET_NO": 999, "REV_AT_EPOCH": 66711, "BSTAR": 0.0030578536, "MEAN_MOTION_DOT": 0.00060697, "MEAN_MOTION_DDOT": 0}, "tle": {"line1": "1 38487U 93036BTX 25340.87235498  .00060697  00000+0  30579-2 0  9994", "line2": "2 38487  73.9743  46.1118 0022448 218.6783 141.2806 15.16654270667111"}}, "geometry": {"type": "Point", "coordinates": [73.75849446648168, 59.26860033176409]}}, {"type": "Feature", "properties": {"norad_id": 39109, "name": "COSMOS 2251 DEB", "group": "cosmos-2251-debris", "lat": 25.493998599389794, "lon": 47.45278372691, "alt_km": 697.6007035497187, "timestamp": "2025-12-07T11:27:50.405354+00:00", "meta": {"OBJECT_NAME": "COSMOS 2251 DEB", "OBJECT_ID": "1993-036BTY", "EPOCH": "2025-11-13T05:50:34.179360", "MEAN_MOTION": 14.70365272, "ECCENTRICITY": 0.0058425, "INCLINATION": 74.0424, "RA_OF_ASC_NODE": 282.2926, "ARG_OF_PERICENTER": 32.7567, "MEAN_ANOMALY": 29.6254, "EPHEMERIS_TYPE": 0, "CLASSIFICATION_TYPE": "U", "NORAD_CAT_ID": 39109, "ELEMENT_SET_NO": 999, "REV_AT_EPOCH": 64740, "BSTAR": 0.0018778, "MEAN_MOTION_DOT": 0.00011647, "MEAN_MOTION_DDOT": 0}, "tle": {"line1": "1 39109U 93036BTY 25317.24345115  .00011647  00000+0  18778-2 0  9997", "line2": "2 39109  74.0424 282.2926 0058425  32.7567  29.6254 14.70365272647406"}}, "geometry": {"type": "Point", "coordinates": [47.45278372691, 25.493998599389794]}}, {"type": "Feature", "properties": {"norad_id": 39110, "name": "COSMOS 2251 DEB", "group": "cosmos-2251-debris", "lat": -62.1578616052609, "lon": 38.79046242660763, "alt_km": 594.3482504708027, "timestamp": "2025-12-07T11:27:50.405364+00:00", "meta": {"OBJECT_NAME": "COSMOS 2251 DEB", "OBJECT_ID": "1993-036BTZ", "EPOCH": "2025-12-03T13:14:13.055136", "MEAN_MOTION": 14.72215365, "ECCENTRICITY": 0.00964609, "INCLINATION": 73.9598, "RA_OF_ASC_NODE": 79.4668, "ARG_OF_PERICENTER": 313.6965, "MEAN_ANOMALY": 59.6182, "EPHEMERIS_TYPE": 0, "CLASSIFICATION_TYPE": "U", "NORAD_CAT_ID": 39110, "ELEMENT_SET_NO": 999, "REV_AT_EPOCH": 62349, "BSTAR": 0.00066560445, "MEAN_MOTION_DOT": 4.484e-05, "MEAN_MOTION_DDOT": 0}, "tle": {"line1": "1 39110U 93036BTZ 25337.55153999  .00004484  00000+0  66560-3 0  9996", "line2": "2 39110  73.9598  79.4668 0096460 313.6965  59.6182 14.72215365623496"}}, "geometry": {"type": "Point", "coordinates": [38.79046242660763, -62.1578616052609]}}, {"type": "Feature", "properties": {"norad_id": 39111, "name": "COSMOS 2251 DEB", "group": "cosmos-2251-debris", "lat": 15.970100924720377, "lon": -132.62845038496172, "alt_km": 533.0277353286938, "timestamp": "2025-12-07T11:27:50.405374+00:00", "meta": {"OBJECT_NAME": "COSMOS 2251 DEB", "OBJECT_ID": "1993-036BUA", "EPOCH": "2025-12-01T22:58:55.551360", "MEAN_MOTION": 15.11912111, "ECCENTRICITY": 0.00109111, "INCLINATION": 74.0059, "RA_OF_ASC_NODE": 63.5328, "ARG_OF_PERICENTER": 39.1207, "MEAN_ANOMALY": 321.0773, "EPHEMERIS_TYPE": 0, "CLASSIFICATION_TYPE": "U", "NORAD_CAT_ID": 39111, "ELEMENT_SET_NO": 999, "REV_AT_EPOCH": 8982, "BSTAR": 0.0056424119, "MEAN_MOTION_DOT": 0.00098096, "MEAN_MOTION_DDOT": 0}, "tle": {"line1": "1 39111U 93036BUA 25335.95758740  .00098096  00000+0  56424-2 0  9993", "line2": "2 39111  74.0059  63.5328 0010911  39.1207 321.0773 15.11912111 89826"}}, "geometry": {"type": "Point", "coordinates": [-132.62845038496172, 15.970100924720377]}}, {"type": "Feature", "properties": {"norad_id": 39546, "name": "COSMOS 2251 DEB", "group": "cosmos-2251-debris", "lat": -32.417459437403764, "lon": 136.8771812070528, "alt_km": 568.9126949331749, "timestamp": "2025-12-07T11:27:50.405385+00:00", "meta": {"OBJECT_NAME": "COSMOS 2251 DEB", "OBJECT_ID": "1993-036BUC", "EPOCH": "2025-12-06T17:54:38.525472", "MEAN_MOTION": 14.91810332, "ECCENTRICITY": 0.00438633, "INCLINATION": 73.9965, "RA_OF_ASC_NODE": 148.8493, "ARG_OF_PERICENTER": 309.6575, "MEAN_ANOMALY": 50.0741, "EPHEMERIS_TYPE": 0, "CLASSIFICATION_TYPE": "U", "NORAD_CAT_ID": 39546, "ELEMENT_SET_NO": 999, "REV_AT_EPOCH": 64347, "BSTAR": 0.002282403, "MEAN_MOTION_DOT": 0.00023501, "MEAN_MOTION_DDOT": 0}, "tle": {"line1": "1 39546U 93036BUC 25340.74627923  .00023501  00000+0  22824-2 0  9992", "line2": "2 39546  73.9965 148.8493 0043863 309.6575  50.0741 14.91810332643477"}}, "geometry": {"type": "Point", "coordinates": [136.8771812070528, -32.417459437403764]}}, {"type": "Feature", "properties": {"norad_id": 39547, "name": "COSMOS 2251 DEB", "group": "cosmos-2251-debris", "lat": 67.23210641416914, "lon": 166.0279003271464, "alt_km": 550.7366935986083, "timestamp": "2025-12-07T11:27:50.405396+00:00", "meta": {"OBJECT_NAME": "COSMOS 2251 DEB", "OBJECT_ID": "1993-036BUD", "EPOCH": "2025-12-06T21:23:36.921120", "MEAN_MOTION": 15.02705271, "ECCENTRICITY": 0.00049117, "INCLINATION": 74.0025, "RA_OF_ASC_NODE": 30.3495, "ARG_OF_PERICENTER": 30.2644, "MEAN_ANOMALY": 145.7961, "EPHEMERIS_TYPE": 0, "CLASSIFICATION_TYPE": "U", "NORAD_CAT_ID": 39547, "ELEMENT_SET_NO": 999, "REV_AT_EPOCH": 63937, "BSTAR": 0.003687305, "MEAN_MOTION_DOT": 0.00049566, "MEAN_MOTION_DDOT": 0}, "tle": {"line1": "1 39547U 93036BUD 25340.89139955  .00049566  00000+0  36873-2 0  9990", "line2": "2 39547  74.0025  30.3495 0004911  30.2644 145.7961 15.02705271639377"}}, "geometry": {"type": "Point", "coordinates": [166.0279003271464, 67.23210641416914]}}, {"type": "Feature", "properties": {"norad_id": 39553, "name": "COSMOS 2251 DEB", "group": "cosmos-2251-debris", "lat": 60.06717339740904, "lon": 8.956354815273373, "alt_km": 796.4835011759478, "timestamp": "2025-12-07T11:27:50.405406+00:00", "meta": {"OBJECT_NAME": "COSMOS 2251 DEB", "OBJECT_ID": "1993-036BUK", "EPOCH": "2025-12-01T17:56:57.014304", "MEAN_MOTION": 13.99866529, "ECCENTRICITY": 0.02013394, "INCLINATION": 74.0297, "RA_OF_ASC_NODE": 349.0518, "ARG_OF_PERICENTER": 127.8246, "MEAN_ANOMALY": 234.1304, "EPHEMERIS_TYPE": 0, "CLASSIFICATION_TYPE": "U", "NORAD_CAT_ID": 39553, "ELEMENT_SET_NO": 999, "REV_AT_EPOCH": 75463, "BSTAR": 0.00053939206, "MEAN_MOTION_DOT": 9.2e-06, "MEAN_MOTION_DDOT": 0}, "tle": {"line1": "1 39553U 93036BUK 25335.74788211  .00000920  00000+0  53939-3 0  9994", "line2": "2 39553  74.0297 349.0518 0201339 127.8246 234.1304 13.99866529754634"}}, "geometry": {"type": "Point", "coordinates": [8.956354815273373, 60.06717339740904]}}, {"type": "Feature", "properties": {"norad_id": 39554, "name": "COSMOS 2251 DEB", "group": "cosmos-2251-debris", "lat": 11.799897302753253, "lon": 92.05231716337872, "alt_km": 538.620024660594, "timestamp": "2025-12-07T11:27:50.405416+00:00", "meta": {"OBJECT_NAME": "COSMOS 2251 DEB", "OBJECT_ID": "1993-036BUL", "EPOCH": "2025-12-06T02:58:28.039296", "MEAN_MOTION": 15.09497162, "ECCENTRICITY": 0.00024557, "INCLINATION": 74.0206, "RA_OF_ASC_NODE": 278.2781, "ARG_OF_PERICENTER": 66.4515, "MEAN_ANOMALY": 307.3871, "EPHEMERIS_TYPE": 0, "CLASSIFICATION_TYPE": "U", "NORAD_CAT_ID": 39554, "ELEMENT_SET_NO": 999, "REV_AT_EPOCH": 64285, "BSTAR": 0.0043848661, "MEAN_MOTION_DOT": 0.00070964, "MEAN_MOTION_DDOT": 0}, "tle": {"line1": "1 39554U 93036BUL 25340.12393564  .00070964  00000+0  43849-2 0  9999", "line2": "2 39554  74.0206 278.2781 0002455  66.4515 307.3871 15.09497162642853"}}, "geometry": {"type": "Point", "coordinates": [92.05231716337872, 11.799897302753253]}}, {"type": "Feature", "properties": {"norad_id": 39583, "name": "COSMOS 2251 DEB", "group": "cosmos-2251-debris", "lat": 65.26644380861993, "lon": -63.9301893499289, "alt_km": 635.6379695959049, "timestamp": "2025-12-07T11:27:50.405426+00:00", "meta": {"OBJECT_NAME": "COSMOS 2251 DEB", "OBJECT_ID": "1993-036BUN", "EPOCH": "2025-12-03T11:46:41.592288", "MEAN_MOTION": 14.60101482, "ECCENTRICITY": 0.01362926, "INCLINATION": 73.9344, "RA_OF_ASC_NODE": 265.002, "ARG_OF_PERICENTER": 20.2137, "MEAN_ANOMALY": 340.435, "EPHEMERIS_TYPE": 0, "CLASSIFICATION_TYPE": "U", "NORAD_CAT_ID": 39583, "ELEMENT_SET_NO": 999, "REV_AT_EPOCH": 61644, "BSTAR": 0.0029015409, "MEAN_MOTION_DOT": 0.00015908, "MEAN_MOTION_DDOT": 0}, "tle": {"line1": "1 39583U 93036BUN 25337.49075917  .00015908  00000+0  29015-2 0  9992", "line2": "2 39583  73.9344 265.0020 0136292  20.2137 340.4350 14.60101482616440"}}, "geometry": {"type": "Point", "coordinates": [-63.9301893499289, 65.26644380861993]}}]}